[{"OBJECT_NAME":"STARLINK-31211","OBJECT_ID":"2024-038J","EPOCH":"2026-03-09T05:55:56.248320","MEAN_MOTION":15.27571669,"ECCENTRICITY":6.816e-5,"INCLINATION":42.9996,"RA_OF_ASC_NODE":29.2471,"ARG_OF_PERICENTER":253.7027,"MEAN_ANOMALY":106.375,"EPHEMERIS_TYPE":0,"CLASSIFICATION_TYPE":"U","NORAD_CAT_ID":59031,"ELEMENT_SET_NO":999,"REV_AT_EPOCH":11458,"BSTAR":-2.0817575e-5,"MEAN_MOTION_DOT":-8.34e-6,"MEAN_MOTION_DDOT":0},{"OBJECT_NAME":"FLOCK 4G-15","OBJECT_ID":"2025-009BX","EPOCH":"2026-03-09T17:13:37.807680","MEAN_MOTION":15.27266411,"ECCENTRICITY":0.00036988,"INCLINATION":97.4054,"RA_OF_ASC_NODE":151.1927,"ARG_OF_PERICENTER":316.8208,"MEAN_ANOMALY":43.274,"EPHEMERIS_TYPE":0,"CLASSIFICATION_TYPE":"U","NORAD_CAT_ID":62678,"ELEMENT_SET_NO":999,"REV_AT_EPOCH":12135,"BSTAR":0.00047574812,"MEAN_MOTION_DOT":0.00012647,"MEAN_MOTION_DDOT":0}]
